STARLINK-31630          
1 59271U 24050T   26068.56880718 -.00002063  00000+0 -57526-4 0  9991
2 59271  53.1600 168.5079 0001409  92.3163 267.7999 15.30200807110710
STARLINK-35585          
1 66170U 25240AA  26068.42474381  .00017501  00000+0  60128-3 0  9991
2 66170  53.1589  64.3324 0001644  80.3548 279.7639 15.30217853 21942
